SL-3 R/B                
1 19046U 88032B   26078.87081706  .00004278  00000+0  20015-3 0  9992
2 19046  97.5205  62.0869 0025328 194.5600 165.4908 15.20018895 53657
SL-16 R/B               
1 19120U 88039B   26078.63368428 -.00000082  00000+0 -15717-4 0  9990
2 19120  71.0150  47.5192 0023259 319.9974  39.9436 14.19617809959799
COSMOS 1953             
1 19210U 88050A   26078.64115096  .00005440  00000+0  19350-3 0  9992
2 19210  82.5091 148.2386 0012678  91.4280 268.8412 15.28679655 39300
SL-8 R/B                
1 19257U 88053B   26078.31077974  .00000279  00000+0  98855-4 0  9995
2 19257  74.0450  94.7303 0021544 272.7718  98.3894 14.38922046977982
COSMOS 1975             
1 19573U 88093A   26078.15411647  .00005633  00000+0  20338-3 0  9990
2 19573  82.5163 108.1817 0012937 132.2930 227.9408 15.28193761 20850
SL-14 R/B               
1 19574U 88093B   26078.83235074  .00000510  00000+0  55868-4 0  9990
2 19574  82.5325  32.5229 0020927   9.1191  51.9770 14.85668504  2522
SL-16 R/B               
1 19650U 88102B   26078.51125815 -.00000081  00000+0 -16673-4 0  9998
2 19650  70.9989 130.8325 0014661 346.2813  13.7909 14.16155997928288
INTERCOSMOS 24          
1 20261U 89080A   26078.09590093  .00000534  00000+0  15881-3 0  9991
2 20261  82.6016  98.2774 1186673 270.9650  75.6003 12.59571281667982
SL-14 R/B               
1 20262U 89080C   26078.71830235  .00000395  00000+0  11193-3 0  9993
2 20262  82.5966 166.7508 1230796 161.8365 203.1088 12.50504355661400
DELTA 1 R/B             
1 20323U 89089B   26078.27743565  .00000332  00000+0  90518-4 0  9990
2 20323  97.0698 284.1907 0070721  92.2696 268.6602 14.50671098897121
ARIANE 40 R/B           
1 20443U 90005H   26078.75073720  .00000205  00000+0  78680-4 0  9990
2 20443  98.3061 139.1114 0010487 168.0873 192.0565 14.39876682894255
DELTA 2 R/B(1)          
1 20453U 90008B   26077.80286398  .00048118  00000+0  54577-3 0  9999
2 20453  35.6024 114.9908 0082023 343.0931  16.7077 15.57130229927557
